[{"OBJECT_NAME":"STARLINK-1801","OBJECT_ID":"2020-073AH","EPOCH":"2026-03-10T00:00:02.999808","MEAN_MOTION":15.71605578,"ECCENTRICITY":0.00058448,"INCLINATION":53.0451,"RA_OF_ASC_NODE":196.4487,"ARG_OF_PERICENTER":213.6688,"MEAN_ANOMALY":260.6117,"EPHEMERIS_TYPE":0,"CLASSIFICATION_TYPE":"U","NORAD_CAT_ID":46701,"ELEMENT_SET_NO":999,"REV_AT_EPOCH":590,"BSTAR":4.5163381e-5,"MEAN_MOTION_DOT":5.32e-5,"MEAN_MOTION_DDOT":0},{"OBJECT_NAME":"STARLINK-11397 [DTC]","OBJECT_ID":"2025-008D","EPOCH":"2026-03-09T12:37:11.032896","MEAN_MOTION":15.70899051,"ECCENTRICITY":0.0002919,"INCLINATION":43.0011,"RA_OF_ASC_NODE":126.69,"ARG_OF_PERICENTER":266.1657,"MEAN_ANOMALY":93.8877,"EPHEMERIS_TYPE":0,"CLASSIFICATION_TYPE":"U","NORAD_CAT_ID":62590,"ELEMENT_SET_NO":999,"REV_AT_EPOCH":6720,"BSTAR":0.0017886,"MEAN_MOTION_DOT":0.00236296,"MEAN_MOTION_DDOT":0}]
